CCSDS_OMM_VERS = 2.0
CREATION_DATE  = 
ORIGINATOR     = 

OBJECT_NAME    = STARLINK-35689
OBJECT_ID      = 2025-263K
CENTER_NAME    = EARTH
REF_FRAME      = TEME
TIME_SYSTEM    = UTC
MEAN_ELEMENT_THEORY = SGP/SGP4

EPOCH          = 2025-11-26T10:00:01.998720
MEAN_MOTION    = 15.89700390
ECCENTRICITY   = .0001994
INCLINATION    = 42.9980
RA_OF_ASC_NODE = 222.8847
ARG_OF_PERICENTER = 263.9050
MEAN_ANOMALY   = 38.2146

EPHEMERIS_TYPE = 0
CLASSIFICATION_TYPE = U
NORAD_CAT_ID   = 66494
ELEMENT_SET_NO = 999
REV_AT_EPOCH   = 301
BSTAR          = -.51967E-2
MEAN_MOTION_DOT = -.1393806E-1
MEAN_MOTION_DDOT = 0

CCSDS_OMM_VERS = 2.0
CREATION_DATE  = 
ORIGINATOR     = 

OBJECT_NAME    = STARLINK-35832
OBJECT_ID      = 2025-263L
CENTER_NAME    = EARTH
REF_FRAME      = TEME
TIME_SYSTEM    = UTC
MEAN_ELEMENT_THEORY = SGP/SGP4

EPOCH          = 2025-11-26T10:00:01.998720
MEAN_MOTION    = 15.89741105
ECCENTRICITY   = .0001952
INCLINATION    = 42.9979
RA_OF_ASC_NODE = 222.8565
ARG_OF_PERICENTER = 260.6204
MEAN_ANOMALY   = 52.5593

EPHEMERIS_TYPE = 0
CLASSIFICATION_TYPE = U
NORAD_CAT_ID   = 66495
ELEMENT_SET_NO = 999
REV_AT_EPOCH   = 301
BSTAR          = -.53456E-2
MEAN_MOTION_DOT = -.1431087E-1
MEAN_MOTION_DDOT = 0

CCSDS_OMM_VERS = 2.0
CREATION_DATE  = 
ORIGINATOR     = 

OBJECT_NAME    = STARLINK-35909
OBJECT_ID      = 2025-263M
CENTER_NAME    = EARTH
REF_FRAME      = TEME
TIME_SYSTEM    = UTC
MEAN_ELEMENT_THEORY = SGP/SGP4

EPOCH          = 2025-11-26T10:00:01.998720
MEAN_MOTION    = 15.89738316
ECCENTRICITY   = .0001895
INCLINATION    = 42.9982
RA_OF_ASC_NODE = 222.8490
ARG_OF_PERICENTER = 267.5699
MEAN_ANOMALY   = 48.6360

EPHEMERIS_TYPE = 0
CLASSIFICATION_TYPE = U
NORAD_CAT_ID   = 66496
ELEMENT_SET_NO = 999
REV_AT_EPOCH   = 301
BSTAR          = -.53369E-2
MEAN_MOTION_DOT = -.142884E-1
MEAN_MOTION_DDOT = 0

CCSDS_OMM_VERS = 2.0
CREATION_DATE  = 
ORIGINATOR     = 

OBJECT_NAME    = STARLINK-35899
OBJECT_ID      = 2025-263N
CENTER_NAME    = EARTH
REF_FRAME      = TEME
TIME_SYSTEM    = UTC
MEAN_ELEMENT_THEORY = SGP/SGP4

EPOCH          = 2025-11-26T10:00:01.998720
MEAN_MOTION    = 15.89755751
ECCENTRICITY   = .0001877
INCLINATION    = 42.9981
RA_OF_ASC_NODE = 222.8421
ARG_OF_PERICENTER = 261.6575
MEAN_ANOMALY   = 57.2024

EPHEMERIS_TYPE = 0
CLASSIFICATION_TYPE = U
NORAD_CAT_ID   = 66497
ELEMENT_SET_NO = 999
REV_AT_EPOCH   = 301
BSTAR          = -.54022E-2
MEAN_MOTION_DOT = -.1445099E-1
MEAN_MOTION_DDOT = 0

CCSDS_OMM_VERS = 2.0
CREATION_DATE  = 
ORIGINATOR     = 

OBJECT_NAME    = STARLINK-35907
OBJECT_ID      = 2025-263P
CENTER_NAME    = EARTH
REF_FRAME      = TEME
TIME_SYSTEM    = UTC
MEAN_ELEMENT_THEORY = SGP/SGP4

EPOCH          = 2025-11-26T10:00:01.998720
MEAN_MOTION    = 15.89765789
ECCENTRICITY   = .0002054
INCLINATION    = 42.9982
RA_OF_ASC_NODE = 222.8353
ARG_OF_PERICENTER = 263.6681
MEAN_ANOMALY   = 57.9254

EPHEMERIS_TYPE = 0
CLASSIFICATION_TYPE = U
NORAD_CAT_ID   = 66498
ELEMENT_SET_NO = 999
REV_AT_EPOCH   = 301
BSTAR          = -.54128E-2
MEAN_MOTION_DOT = -.144838E-1
MEAN_MOTION_DDOT = 0

CCSDS_OMM_VERS = 2.0
CREATION_DATE  = 
ORIGINATOR     = 

OBJECT_NAME    = STARLINK-35816
OBJECT_ID      = 2025-263Q
CENTER_NAME    = EARTH
REF_FRAME      = TEME
TIME_SYSTEM    = UTC
MEAN_ELEMENT_THEORY = SGP/SGP4

EPOCH          = 2025-11-26T10:00:01.998720
MEAN_MOTION    = 15.89791912
ECCENTRICITY   = .000197
INCLINATION    = 42.9981
RA_OF_ASC_NODE = 222.8227
ARG_OF_PERICENTER = 266.3589
MEAN_ANOMALY   = 60.2047

EPHEMERIS_TYPE = 0
CLASSIFICATION_TYPE = U
NORAD_CAT_ID   = 66499
ELEMENT_SET_NO = 999
REV_AT_EPOCH   = 301
BSTAR          = -.54233E-2
MEAN_MOTION_DOT = -.1452426E-1
MEAN_MOTION_DDOT = 0

CCSDS_OMM_VERS = 2.0
CREATION_DATE  = 
ORIGINATOR     = 

OBJECT_NAME    = STARLINK-35894
OBJECT_ID      = 2025-263R
CENTER_NAME    = EARTH
REF_FRAME      = TEME
TIME_SYSTEM    = UTC
MEAN_ELEMENT_THEORY = SGP/SGP4

EPOCH          = 2025-11-26T10:00:01.998720
MEAN_MOTION    = 15.89781829
ECCENTRICITY   = .0001955
INCLINATION    = 42.9982
RA_OF_ASC_NODE = 222.8296
ARG_OF_PERICENTER = 264.4721
MEAN_ANOMALY   = 59.4318

EPHEMERIS_TYPE = 0
CLASSIFICATION_TYPE = U
NORAD_CAT_ID   = 66500
ELEMENT_SET_NO = 999
REV_AT_EPOCH   = 301
BSTAR          = -.54251E-2
MEAN_MOTION_DOT = -.1452176E-1
MEAN_MOTION_DDOT = 0

CCSDS_OMM_VERS = 2.0
CREATION_DATE  = 
ORIGINATOR     = 

OBJECT_NAME    = STARLINK-35897
OBJECT_ID      = 2025-263S
CENTER_NAME    = EARTH
REF_FRAME      = TEME
TIME_SYSTEM    = UTC
MEAN_ELEMENT_THEORY = SGP/SGP4

EPOCH          = 2025-11-26T10:00:01.998720
MEAN_MOTION    = 15.89802530
ECCENTRICITY   = .0001913
INCLINATION    = 42.9984
RA_OF_ASC_NODE = 222.8160
ARG_OF_PERICENTER = 268.7086
MEAN_ANOMALY   = 60.5669

EPHEMERIS_TYPE = 0
CLASSIFICATION_TYPE = U
NORAD_CAT_ID   = 66501
ELEMENT_SET_NO = 999
REV_AT_EPOCH   = 301
BSTAR          = -.54571E-2
MEAN_MOTION_DOT = -.1460902E-1
MEAN_MOTION_DDOT = 0

CCSDS_OMM_VERS = 2.0
CREATION_DATE  = 
ORIGINATOR     = 

OBJECT_NAME    = STARLINK-35922
OBJECT_ID      = 2025-263T
CENTER_NAME    = EARTH
REF_FRAME      = TEME
TIME_SYSTEM    = UTC
MEAN_ELEMENT_THEORY = SGP/SGP4

EPOCH          = 2025-11-26T10:00:01.998720
MEAN_MOTION    = 15.89837654
ECCENTRICITY   = .0002024
INCLINATION    = 42.9985
RA_OF_ASC_NODE = 222.7945
ARG_OF_PERICENTER = 264.6153
MEAN_ANOMALY   = 73.1734

EPHEMERIS_TYPE = 0
CLASSIFICATION_TYPE = U
NORAD_CAT_ID   = 66502
ELEMENT_SET_NO = 999
REV_AT_EPOCH   = 301
BSTAR          = -.55464E-2
MEAN_MOTION_DOT = -.1483939E-1
MEAN_MOTION_DDOT = 0

CCSDS_OMM_VERS = 2.0
CREATION_DATE  = 
ORIGINATOR     = 

OBJECT_NAME    = STARLINK-35916
OBJECT_ID      = 2025-263V
CENTER_NAME    = EARTH
REF_FRAME      = TEME
TIME_SYSTEM    = UTC
MEAN_ELEMENT_THEORY = SGP/SGP4

EPOCH          = 2025-11-26T10:00:01.998720
MEAN_MOTION    = 15.88749905
ECCENTRICITY   = .0001848
INCLINATION    = 42.9983
RA_OF_ASC_NODE = 222.7761
ARG_OF_PERICENTER = 262.7179
MEAN_ANOMALY   = 82.2103

EPHEMERIS_TYPE = 0
CLASSIFICATION_TYPE = U
NORAD_CAT_ID   = 66504
ELEMENT_SET_NO = 999
REV_AT_EPOCH   = 301
BSTAR          = -.91925E-2
MEAN_MOTION_DOT = -.2282726E-1
MEAN_MOTION_DDOT = 0

CCSDS_OMM_VERS = 2.0
CREATION_DATE  = 
ORIGINATOR     = 

OBJECT_NAME    = STARLINK-34766
OBJECT_ID      = 2025-263W
CENTER_NAME    = EARTH
REF_FRAME      = TEME
TIME_SYSTEM    = UTC
MEAN_ELEMENT_THEORY = SGP/SGP4

EPOCH          = 2025-11-26T10:00:01.998720
MEAN_MOTION    = 15.89809092
ECCENTRICITY   = .0001616
INCLINATION    = 42.9984
RA_OF_ASC_NODE = 222.8076
ARG_OF_PERICENTER = 268.0202
MEAN_ANOMALY   = 64.5657

EPHEMERIS_TYPE = 0
CLASSIFICATION_TYPE = U
NORAD_CAT_ID   = 66505
ELEMENT_SET_NO = 999
REV_AT_EPOCH   = 301
BSTAR          = -.55176E-2
MEAN_MOTION_DOT = -.147503E-1
MEAN_MOTION_DDOT = 0

