STARLINK-35689          
1 66494U 25263K   25330.41668980 -.01393806  00000+0 -51967-2 0  9993
2 66494  42.9980 222.8847 0001994 263.9050  38.2146 15.89700390  3014
STARLINK-35832          
1 66495U 25263L   25330.41668980 -.01431087  00000+0 -53456-2 0  9993
2 66495  42.9979 222.8565 0001952 260.6204  52.5593 15.89741105  3013
STARLINK-35909          
1 66496U 25263M   25330.41668980 -.01428840  00000+0 -53369-2 0  9990
2 66496  42.9982 222.8490 0001895 267.5699  48.6360 15.89738316  3013
STARLINK-35899          
1 66497U 25263N   25330.41668980 -.01445099  00000+0 -54022-2 0  9993
2 66497  42.9981 222.8421 0001877 261.6575  57.2024 15.89755751  3010
STARLINK-35907          
1 66498U 25263P   25330.41668980 -.01448380  00000+0 -54128-2 0  9997
2 66498  42.9982 222.8353 0002054 263.6681  57.9254 15.89765789  3018
STARLINK-35816          
1 66499U 25263Q   25330.41668980 -.01452426  00000+0 -54233-2 0  9991
2 66499  42.9981 222.8227 0001970 266.3589  60.2047 15.89791912  3015
STARLINK-35894          
1 66500U 25263R   25330.41668980 -.01452176  00000+0 -54251-2 0  9996
2 66500  42.9982 222.8296 0001955 264.4721  59.4318 15.89781829  3012
STARLINK-35897          
1 66501U 25263S   25330.41668980 -.01460902  00000+0 -54571-2 0  9998
2 66501  42.9984 222.8160 0001913 268.7086  60.5669 15.89802530  3015
STARLINK-35922          
1 66502U 25263T   25330.41668980 -.01483939  00000+0 -55464-2 0  9996
2 66502  42.9985 222.7945 0002024 264.6153  73.1734 15.89837654  3019
STARLINK-35916          
1 66504U 25263V   25330.41668980 -.02282726  00000+0 -91925-2 0  9992
2 66504  42.9983 222.7761 0001848 262.7179  82.2103 15.88749905  3016
STARLINK-34766          
1 66505U 25263W   25330.41668980 -.01475030  00000+0 -55176-2 0  9992
2 66505  42.9984 222.8076 0001616 268.0202  64.5657 15.89809092  3019
